[{"OBJECT_NAME":"DEKART","OBJECT_ID":"2020-068H","EPOCH":"2026-03-09T23:59:57.066720","MEAN_MOTION":15.34869301,"ECCENTRICITY":0.00073753,"INCLINATION":97.8782,"RA_OF_ASC_NODE":71.3423,"ARG_OF_PERICENTER":278.3856,"MEAN_ANOMALY":81.655,"EPHEMERIS_TYPE":0,"CLASSIFICATION_TYPE":"U","NORAD_CAT_ID":46493,"ELEMENT_SET_NO":999,"REV_AT_EPOCH":30054,"BSTAR":0.00048248993,"MEAN_MOTION_DOT":0.00016256,"MEAN_MOTION_DDOT":0},{"OBJECT_NAME":"KUIPER-00268","OBJECT_ID":"2026-030AC","EPOCH":"2026-03-09T15:02:25.520928","MEAN_MOTION":15.36041233,"ECCENTRICITY":0.0002948,"INCLINATION":51.8839,"RA_OF_ASC_NODE":219.4073,"ARG_OF_PERICENTER":35.5768,"MEAN_ANOMALY":324.5415,"EPHEMERIS_TYPE":0,"CLASSIFICATION_TYPE":"U","NORAD_CAT_ID":67790,"ELEMENT_SET_NO":999,"REV_AT_EPOCH":508,"BSTAR":0.0010186,"MEAN_MOTION_DOT":0.00036094,"MEAN_MOTION_DDOT":0}]
